SARSAT 7 (NOAA 15)      
1 25338U 98030A   20358.11187375  .00000033  00000-0  32479-4 0  9997
2 25338  98.7009  22.0470 0011392  75.9160 284.3285 14.26005145176111
METEOSAT-8 (MSG-1)      
1 27509U 02040B   20357.30604823  .00000142  00000-0  00000-0 0  9999
2 27509   7.0578  53.2985 0001132 170.5533  19.1339  1.00266561 67179
GPS BIIR-08             
1 27663U 03005A   20356.55339208 -.00000066  00000-0  00000-0 0  9996
2 27663  55.9094 294.5747 0117904  35.4799 137.1461  2.00569896131121
GPS BIIR-11             
1 28190U 04009A   20357.30673442 -.00000078  00000-0  00000-0 0  9995
2 28190  56.2395 355.3791 0087434 101.2449  49.4686  2.00571732122775
GPS BIIR-12             
1 28361U 04023A   20357.38844486  .00000089  00000-0  00000-0 0  9998
2 28361  54.0828 167.8416 0138849 242.4762 145.6236  2.00562878120875
GPS BIIR-13             
1 28474U 04045A   20357.31001164 -.00000096  00000-0  00000-0 0  9997
2 28474  55.0892  45.2738 0204758 270.0097 158.4755  2.00574914118261
SARSAT 10 (NOAA 18)     
1 28654U 05018A   20358.14722917  .00000087  00000-0  71497-4 0  9997
2 28654  99.0202  56.1078 0015005  61.9377 298.3310 14.12566748803641
GPS BIIR-14M            
1 28874U 05038A   20356.82306455 -.00000078  00000-0  00000-0 0  9990
2 28874  56.3320 352.8006 0138414 268.3985 272.1913  2.00582469111651
METEOSAT-9 (MSG-2)      
1 28912U 05049B   20357.43452174  .00000024  00000-0  00000-0 0  9993
2 28912   4.8283  69.3186 0000962 230.3892 311.6007  1.00267329 54957
GOES 13                 
1 29155U 06018A   20357.24058668  .00000046  00000-0  00000-0 0  9993
2 29155   0.2999 106.8499 0007527 124.5140   7.8907  1.00272267 23281
SARSAT 11 (METOP-A)     
1 29499U 06044A   20358.15429789  .00000007  00000-0  22478-4 0  9994
2 29499  98.4983  38.2323 0001656  91.7727   3.9998 14.21493032735695
GPS BIIR-16M            
1 29601U 06052A   20357.12280371 -.00000068  00000-0  00000-0 0  9997
2 29601  55.9005 293.4745 0079153  66.1657 294.6714  2.00574232103231
GPS BIIR-17M            
1 32260U 07047A   20356.93862651  .00000081  00000-0  00000-0 0  9996
2 32260  53.2094 163.0232 0129132  54.4226 306.7756  2.00549221 96673
GPS BIIR-18M            
1 32384U 07062A   20357.39179653 -.00000077  00000-0  00000-0 0  9990
2 32384  56.4336 353.4740 0012690 134.8458 324.5715  2.00560210 95340
SARSAT 12 (NOAA 19)     
1 33591U 09005A   20358.16518174  .00000039  00000-0  46524-4 0  9993
2 33591  99.1935   8.4100 0013065 266.8393  93.1283 14.12445079612039
GOES 14                 
1 35491U 09033A   20357.52236243 -.00000084  00000-0  00000-0 0  9994
2 35491   0.1487 254.8776 0013003 329.8730 310.5971  1.00272266 42033
GOES 15                 
1 36411U 10008A   20357.50506670  .00000064  00000-0  00000-0 0  9990
2 36411   0.3316  99.3483 0001577 334.5267  71.2023  1.00270948 39598
GLONASS-K 1             
1 37372U 11009A   20358.10651029 -.00000056  00000-0  00000+0 0  9996
2 37372  65.9095  21.4580 0010810 230.2993 131.4319  2.13107425 76433
GPS BIIF-2              
1 37753U 11036A   20357.04629226 -.00000094  00000-0  00000-0 0  9998
2 37753  56.3020  49.9009 0100077  46.2473 315.5508  2.00561824 69106
GSAT0101 (GALILEO-PFM)  
1 37846U 11060A   20357.24591184 -.00000087  00000-0  00000-0 0  9993
2 37846  56.7412  36.1300 0002894 306.9198  53.1103  1.70475402 56977
GSAT0102 (GALILEO-FM2)  
1 37847U 11060B   20357.22440640 -.00000087  00000-0  00000-0 0  9992
2 37847  56.7417  36.1301 0004869 295.4289  97.5660  1.70475533 56987
LUCH 5A                 
1 37951U 11074B   20358.26105850 -.00000035  00000-0  00000+0 0  9991
2 37951   3.6984 109.6467 0001277 176.8804  66.6066  1.00272786 33112
METEOSAT-10 (MSG-3)     
1 38552U 12035B   20357.26741569  .00000069  00000-0  00000-0 0  9996
2 38552   1.2536 354.0067 0001208 212.4868 350.3465  1.00277147 30771
SARSAT 13 (METOP-B)     
1 38771U 12049A   20358.20073418  .00000007  00000-0  23015-4 0  9997
2 38771  98.7061  54.7741 0001966 141.8689 285.6686 14.21480717428837
GPS BIIF-3              
1 38833U 12053A   20356.52928337  .00000017  00000-0  00000-0 0  9999
2 38833  53.6050 225.6308 0105674  39.8567 320.9895  2.00569021 59367
GSAT0103 (GALILEO-FM3)  
1 38857U 12055A   20357.28757550  .00000073  00000-0  00000-0 0  9990
2 38857  55.0114 156.6114 0001349 229.9876 129.9868  1.70473808 51011
GSAT0104 (GALILEO-FM4)  
1 38858U 12055B   20357.22198504  .00000073  00000-0  00000-0 0  9993
2 38858  55.0118 156.6127 0000499 159.4280 200.5601  1.70473745 51012
GPS BIIF-4              
1 39166U 13023A   20356.39237260 -.00000078  00000-0  00000-0 0  9998
2 39166  55.9850 349.3962 0085919  30.9588 329.5614  2.00563887 55694
INSAT-3D                
1 39216U 13038B   20357.42688253 -.00000148  00000-0  00000-0 0  9995
2 39216   0.0419 101.4382 0001226 157.4422  68.3036  1.00272181 27021
GPS BIIF-5              
1 39533U 14008A   20356.88843437  .00000010  00000-0  00000-0 0  9998
2 39533  53.7141 231.0692 0047957 199.4828 160.4071  2.00551915 49529
LUCH 5V                 
1 39727U 14023A   20357.78690671 -.00000258  00000-0  00000+0 0  9994
2 39727   0.4535  24.6447 0001331 316.3958 128.7252  1.00268117542449
GPS BIIF-6              
1 39741U 14026A   20357.16712683 -.00000094  00000-0  00000-0 0  9992
2 39741  56.2737  49.4234 0023581 292.1177  67.6837  2.00563859 48366
GPS BIIF-7              
1 40105U 14045A   20357.25862444  .00000090  00000-0  00000-0 0  9995
2 40105  54.6071 168.4498 0018048 103.5537 256.6586  2.00572267 45930
GSAT0201 (GALILEO 5)    
1 40128U 14050A   20356.97401263 -.00000109  00000-0  00000-0 0  9994
2 40128  50.5335 353.8947 1653664 105.5087 273.3506  1.85519584 41157
GSAT0202 (GALILEO 6)    
1 40129U 14050B   20357.23705276 -.00000109  00000-0  00000-0 0  9996
2 40129  50.5676 352.9275 1651194 106.3283 272.4586  1.85520229 43320
GPS BIIF-8              
1 40294U 14068A   20356.63447301 -.00000007  00000-0  00000-0 0  9990
2 40294  55.4469 109.4440 0030739  48.2364 312.0108  2.00561904 45028
GLONASS-K 2             
1 40315U 14075A   20357.35123198 -.00000030  00000-0  00000-0 0  9993
2 40315  63.8260 260.1956 0016410 212.5034  32.0614  2.13101316 47171
GPS BIIF-9              
1 40534U 15013A   20356.26998438 -.00000064  00000-0  00000-0 0  9992
2 40534  54.0848 287.1672 0054402  10.8352 349.2990  2.00557156 41635
GSAT0203 (GALILEO 7)    
1 40544U 15017A   20355.26729292 -.00000091  00000-0  00000-0 0  9996
2 40544  56.5338  36.2923 0005391 251.4707 108.5268  1.70475148 35025
GSAT0204 (GALILEO 8)    
1 40545U 15017B   20357.39460174 -.00000086  00000-0  00000+0 0  9997
2 40545  56.5416  36.2502 0003594 228.4560 131.5697  1.70475326 35727
GPS BIIF-10             
1 40730U 15033A   20356.93377406 -.00000078  00000-0  00000-0 0  9997
2 40730  55.4970 348.4600 0059670 354.5111   5.4390  2.00553132 39811
METEOSAT-11 (MSG-4)     
1 40732U 15034A   20357.44007887  .00000009  00000-0  00000-0 0  9993
2 40732   0.3948 263.7414 0001315 280.5565  65.7435  1.00278956 19952
GSAT0205 (GALILEO 9)    
1 40889U 15045A   20357.05002234 -.00000045  00000-0  00000-0 0  9997
2 40889  56.0082 276.9345 0005410   2.2509 357.7790  1.70474616 32869
GSAT0206 (GALILEO 10)   
1 40890U 15045B   20356.68295853 -.00000045  00000-0  00000-0 0  9998
2 40890  56.0078 276.9410 0003851 349.3124  10.7074  1.70474819 32882
GPS BIIF-11             
1 41019U 15062A   20357.47697430 -.00000013  00000-0  00000-0 0  9991
2 41019  55.4423 109.2412 0064108 210.8585 148.7496  2.00564035 37663
ELEKTRO-L 2             
1 41105U 15074A   20357.40620834 -.00000107  00000-0  00000-0 0  9991
2 41105   1.6507  94.7342 0002378 133.8644 354.5589  1.00270649 18434
GSAT0209 (GALILEO 12)   
1 41174U 15079A   20356.85658251  .00000071  00000-0  00000+0 0  9992
2 41174  55.0260 156.3225 0002549 340.6778  19.2973  1.70473549 31203
GSAT0208 (GALILEO 11)   
1 41175U 15079B   20357.07630495  .00000072  00000-0  00000+0 0  9999
2 41175  55.0240 156.3156 0001854 347.0610  12.9196  1.70473503 31217
GPS BIIF-12             
1 41328U 16007A   20355.57591768  .00000073  00000-0  00000-0 0  9995
2 41328  54.8381 169.0517 0044858 221.0045 138.6655  2.00570043 35688
GSAT0211 (GALILEO 14)   
1 41549U 16030A   20356.02444194 -.00000045  00000-0  00000-0 0  9997
2 41549  56.1515 276.8350 0004843 325.7628  34.2352  1.70474383 28502
GSAT0210 (GALILEO 13)   
1 41550U 16030B   20357.49048278 -.00000044  00000-0  00000+0 0  9992
2 41550  56.1496 276.7963 0003807 303.7402  56.2506  1.70474410 28502
INSAT-3DR               
1 41752U 16054A   20358.06987115 -.00000066  00000-0  00000+0 0  9992
2 41752   0.1118  98.7660 0012916 170.2420 282.2012  1.00271871 15722
GSAT0207 (GALILEO 15)   
1 41859U 16069A   20355.97617089  .00000067  00000-0  00000-0 0  9994
2 41859  54.6844 156.6629 0001987 317.3827  42.5847  1.70473454 25395
GSAT0212 (GALILEO 16)   
1 41860U 16069B   20357.00279090  .00000071  00000-0  00000-0 0  9993
2 41860  54.6821 156.6329 0002120  11.6921 348.2985  1.70473538 25503
GSAT0213 (GALILEO 17)   
1 41861U 16069C   20356.78191167  .00000071  00000-0  00000-0 0  9996
2 41861  54.6844 156.6432 0001200 258.1917 101.7799  1.70473548 25501
GSAT0214 (GALILEO 18)   
1 41862U 16069D   20356.92898795  .00000071  00000-0  00000-0 0  9994
2 41862  54.6827 156.6344 0000397 269.4422  90.5387  1.70473557 25493
GOES 16                 
1 41866U 16071A   20358.18230671 -.00000237  00000-0  00000+0 0  9998
2 41866   0.0437 186.7066 0001460 112.7293 143.1824  1.00269730 15031
GSAT-17                 
1 42815U 17040B   20357.42775566 -.00000249  00000-0  00000-0 0  9997
2 42815   0.0457 104.5527 0006239 159.1678  75.2034  1.00271715 12704
GSAT0215 (GALILEO 19)   
1 43055U 17079A   20357.41921643 -.00000044  00000-0  00000+0 0  9996
2 43055  56.1252 276.6375 0003099 303.5825  56.4153  1.70473605 18841
GSAT0216 (GALILEO 20)   
1 43056U 17079B   20357.12525655 -.00000045  00000-0  00000-0 0  9990
2 43056  56.1256 276.6452 0004814 293.6197  66.3575  1.70473718 18853
GSAT0217 (GALILEO 21)   
1 43057U 17079C   20356.75875960 -.00000045  00000-0  00000-0 0  9996
2 43057  56.1244 276.6556 0004707 305.3282  54.6561  1.70473681 18835
GSAT0218 (GALILEO 22)   
1 43058U 17079D   20357.56534727 -.00000044  00000-0  00000+0 0  9998
2 43058  56.1238 276.6309 0005122 288.4689  71.5027  1.70473707 18844
GOES 17                 
1 43226U 18022A   20357.49879125  .00000107  00000-0  00000-0 0  9990
2 43226   0.0517 234.2324 0000432  21.0717 238.5413  1.00273306 10334
GSAT0221 (GALILEO 25)   
1 43564U 18060A   20358.05078267 -.00000083  00000-0  00000+0 0  9991
2 43564  56.9216  35.8919 0005946 266.6103  93.3796  1.70476289 15047
GSAT0222 (GALILEO 26)   
1 43565U 18060B   20353.57797033 -.00000090  00000-0  00000-0 0  9992
2 43565  56.9211  36.0138 0005452 270.8209  89.1756  1.70476182 15002
GSAT0219 (GALILEO 23)   
1 43566U 18060C   20357.90445564 -.00000084  00000-0  00000+0 0  9995
2 43566  56.9242  35.8971 0005293 267.4434  92.5537  1.70476097 15059
GSAT0220 (GALILEO 24)   
1 43567U 18060D   20358.12434589 -.00000083  00000-0  00000+0 0  9995
2 43567  56.9241  35.8915 0005325 268.4911  91.5060  1.70476302 15031
BEIDOU-3 M13            
1 43622U 18072A   20357.73581160  .00000036  00000-0  00000+0 0  9991
2 43622  55.2101 129.5784 0004118 280.1783 100.7523  1.86231505 15366
BEIDOU-3 M14            
1 43623U 18072B   20357.64300233  .00000037  00000-0  00000+0 0  9993
2 43623  55.2118 129.5729 0002779 327.2382  81.7034  1.86231519 15363
METEOR-M2 2             
1 44387U 19038A   20358.13962505 -.00000041  00000-0  12600-5 0  9996
2 44387  98.6461 314.6750 0002356  60.6451 299.4969 14.23683926 76382
